     2.100          NAVIGATION                              RINEX VERSION / TYPE
fic2rin                                 09/20/2008 05:15:43 PGM / RUN BY / DATE
                                                            END OF HEADER
32 08  9 19 14  0  0.0  .316387508065D-03  .341060513165D-12  .000000000000D+00
     .450000000000D+02  .555000000000D+02  .440518349357D-08 -.221811729644D+01
     .318326056004D-05  .139548496809D-01  .102631747723D-05  .515376553345D+04
     .482400000000D+06  .126659870148D-06 -.103707771347D+01  .171363353729D-06
     .967279442980D+00  .359656250000D+03 -.128626988294D+01 -.823141430002D-08
     .142863093678D-09  .100000000000D+01  .149700000000D+04  .000000000000D+00
     .240000000000D+01  .000000000000D+00 -.325962901115D-08  .450000000000D+02
     .475206000000D+06  .400000000000D+01
 2 08  9 19 16  0  0.0  .186226796359D-03 -.284217094304D-11  .000000000000D+00
     .610000000000D+02  .979375000000D+02  .474376902559D-08 -.207408527123D+00
     .501237809658D-05  .876836327370D-02  .108424574137D-04  .515378186035D+04
     .489600000000D+06  .104308128357D-06 -.218014747859D+01 -.201165676117D-06
     .942764587415D+00  .166593750000D+03  .264204501388D+01 -.817141180067D-08
    -.195365280605D-09  .100000000000D+01  .149700000000D+04  .000000000000D+00
     .240000000000D+01  .000000000000D+00 -.172294676304D-07  .610000000000D+02
     .482406000000D+06  .400000000000D+01
 3 08  9 19 16  0  0.0  .285586342216D-03  .511590769747D-11  .000000000000D+00
     .130000000000D+02 -.298125000000D+02  .564844956631D-08 -.533317188607D+00
    -.152550637722D-05  .111855384894D-01  .761821866035D-05  .515369550323D+04
     .489600000000D+06 -.502914190292D-07  .295847251792D+01  .219792127609D-06
     .926368412243D+00  .212250000000D+03  .850296518514D+00 -.864107422114D-08
    -.547522806523D-09  .100000000000D+01  .149700000000D+04  .000000000000D+00
     .240000000000D+01  .000000000000D+00 -.419095158577D-08  .130000000000D+02
     .482406000000D+06  .400000000000D+01
 4 08  9 19 16  0  0.0 -.175948254764D-03 -.111413100967D-10  .000000000000D+00
     .400000000000D+02  .112500000000D+03  .469340978507D-08  .261192547339D+01
     .561214983463D-05  .829645106569D-02  .111088156700D-04  .515359363174D+04
     .489600000000D+06 -.102445483208D-06 -.216144446740D+01 -.100582838058D-06
     .942028558219D+00  .156375000000D+03  .400636114479D+00 -.797961809741D-08
    -.162506769059D-09  .100000000000D+01  .149700000000D+04  .000000000000D+00
     .240000000000D+01  .000000000000D+00 -.605359673500D-08  .400000000000D+02
     .482406000000D+06  .400000000000D+01
 5 08  9 19 16  0  0.0 -.934083946049D-04 -.106297193270D-09  .000000000000D+00
     .520000000000D+02 -.381250000000D+01  .519628787482D-08  .219877990545D+01
    -.346451997757D-06  .931481155567D-02  .625103712082D-05  .515368693924D+04
     .489600000000D+06  .465661287308D-07  .192630165113D+01 -.208616256714D-06
     .943343380713D+00  .247593750000D+03  .127443927760D+01 -.818105505950D-08
     .362157942475D-09  .100000000000D+01  .149700000000D+04  .000000000000D+00
     .485000000000D+01  .630000000000D+02 -.419095158577D-08  .520000000000D+02
     .482406000000D+06  .400000000000D+01
 6 08  9 19 16  0  0.0  .165667850524D-03 -.204636307899D-11  .000000000000D+00
     .710000000000D+02 -.327187500000D+02  .532593613233D-08  .206259975071D+01
    -.185891985893D-05  .572793092579D-02  .797025859356D-05  .515371503830D+04
     .489600000000D+06  .130385160446D-07  .302399598818D+01 -.502914190292D-07
     .933940817081D+00  .205593750000D+03 -.157416276023D+01 -.825105797540D-08
    -.592524681031D-09  .100000000000D+01  .149700000000D+04  .000000000000D+00
     .240000000000D+01  .000000000000D+00 -.465661287308D-08  .710000000000D+02
     .482406000000D+06  .400000000000D+01
 7 08  9 19 16  0  0.0  .181118957698D-04  .227373675443D-11  .000000000000D+00
     .940000000000D+02 -.476875000000D+02  .426696345044D-08 -.185045119346D+01
    -.250712037086D-05  .221691466868D-02  .113043934107D-04  .515370033264D+04
     .489600000000D+06 -.465661287308D-07  .971831888973D+00  .745058059692D-08
     .963885383798D+00  .167656250000D+03  .272606635764D+01 -.782246869436D-08
     .507521140293D-09  .100000000000D+01  .149700000000D+04  .000000000000D+00
     .240000000000D+01  .000000000000D+00 -.107102096081D-07  .940000000000D+02
     .482406000000D+06  .400000000000D+01
 8 08  9 19 16  0  0.0 -.170735176653D-03 -.170530256582D-11  .000000000000D+00
     .171000000000D+03 -.503750000000D+02  .382408786004D-08 -.262606257681D+01
    -.236928462982D-05  .105714114616D-01  .115539878607D-04  .515372348022D+04
     .489600000000D+06 -.186264514923D-06  .102700785877D+01  .540167093277D-07
     .985025596030D+00  .172593750000D+03  .290715811058D+01 -.747102548391D-08
     .549308595194D-09  .100000000000D+01  .149700000000D+04  .000000000000D+00
     .340000000000D+01  .000000000000D+00 -.372529029846D-08  .171000000000D+03
     .482406000000D+06  .400000000000D+01
 9 08  9 19 16  0  0.0  .157132744789D-04  .181898940355D-11  .000000000000D+00
     .420000000000D+02 -.546562500000D+02  .402659629533D-08 -.298345576914D+01
    -.295601785183D-05  .201489059255D-01  .976771116257D-05  .515366509819D+04
     .489600000000D+06  .348314642906D-06  .935998684925D+00 -.316649675369D-07
     .972916907517D+00  .193156250000D+03  .144211611564D+01 -.742352350527D-08
     .448947271884D-09  .100000000000D+01  .149700000000D+04  .000000000000D+00
     .340000000000D+01  .000000000000D+00 -.558793544769D-08  .420000000000D+02
     .482406000000D+06  .400000000000D+01
10 08  9 19 16  0  0.0 -.506034120917D-05 -.454747350886D-12  .000000000000D+00
     .510000000000D+02  .753125000000D+02  .456590447396D-08  .720490388551D+00
     .403076410294D-05  .800898217130D-02  .260397791862D-05  .515370901489D+04
     .489600000000D+06 -.894069671631D-07 -.109697843321D+01  .108033418655D-06
     .961693316627D+00  .327687500000D+03  .558019533216D+00 -.849142513051D-08
     .464305054455D-10  .100000000000D+01  .149700000000D+04  .000000000000D+00
     .240000000000D+01  .000000000000D+00 -.232830643654D-08  .510000000000D+02
     .482406000000D+06  .400000000000D+01
11 08  9 19 16  0  0.0  .195591710508D-04 -.682121026330D-12  .000000000000D+00
     .370000000000D+02  .721875000000D+02  .583060001075D-08 -.217097383092D+01
     .371225178242D-05  .850825489033D-02  .102687627077D-04  .515365156746D+04
     .489600000000D+06  .689178705215D-07 -.236765964104D+01 -.100582838058D-06
     .890789147366D+00  .144625000000D+03  .616286722061D+00 -.843677999718D-08
    -.164292557730D-09  .100000000000D+01  .149700000000D+04  .000000000000D+00
     .240000000000D+01  .000000000000D+00 -.121071934700D-07  .370000000000D+02
     .482406000000D+06  .400000000000D+01
12 08  9 19 16  0  0.0 -.350286252797D-03  .159161572810D-11  .000000000000D+00
     .130000000000D+02 -.703125000000D+01  .481091467962D-08 -.172421253845D+01
    -.374391674995D-06  .302286527585D-02  .638887286186D-05  .515382060051D+04
     .489600000000D+06 -.115483999252D-06  .202236245958D+01 -.353902578354D-07
     .964515380691D+00  .257968750000D+03 -.859575237353D+00 -.810105172704D-08
     .282154610015D-09  .100000000000D+01  .149700000000D+04  .000000000000D+00
     .240000000000D+01  .000000000000D+00 -.116415321827D-07  .130000000000D+02
     .482406000000D+06  .400000000000D+01
13 08  9 19 16  0  0.0  .271621625870D-03  .125055521494D-11  .000000000000D+00
     .630000000000D+02 -.102968750000D+03  .364336604653D-08  .372494303174D+00
    -.554695725441D-05  .368061440531D-02  .609643757343D-05  .515357937050D+04
     .489600000000D+06 -.577419996262D-07 -.247251412614D-01  .186264514923D-07
     .995735658787D+00  .278531250000D+03  .154990015709D+01 -.789318592573D-08
    -.218580533328D-09  .100000000000D+01  .149700000000D+04  .000000000000D+00
     .240000000000D+01  .000000000000D+00 -.111758708954D-07  .630000000000D+02
     .482406000000D+06  .400000000000D+01
14 08  9 19 16  0  0.0 -.217807013541D-03  .466116034659D-11  .000000000000D+00
     .630000000000D+02 -.786875000000D+02  .379622955677D-08  .138014466754D+00
    -.420026481152D-05  .420840352308D-02  .597722828388D-05  .515373943710D+04
     .489600000000D+06 -.465661287308D-07 -.426901585593D-01  .428408384323D-07
     .989399043756D+00  .281031250000D+03 -.217926802052D+01 -.791747265166D-08
    -.155006456641D-09  .100000000000D+01  .149700000000D+04  .000000000000D+00
     .240000000000D+01  .000000000000D+00 -.931322574615D-08  .630000000000D+02
     .482406000000D+06  .400000000000D+01
15 08  9 19 16  0  0.0 -.180043745786D-03 -.648014975013D-11  .000000000000D+00
     .800000000000D+01 -.945000000000D+02  .451983112625D-08  .100763274937D+01
    -.490434467793D-05  .913218711503D-03  .457651913166D-05  .515370678139D+04
     .489600000000D+06  .484287738800D-07 -.873038042339D-01  .167638063431D-07
     .957658037044D+00  .289250000000D+03 -.118248309398D+01 -.831606068302D-08
    -.205008539429D-09  .100000000000D+01  .149700000000D+04  .000000000000D+00
     .240000000000D+01  .000000000000D+00 -.977888703346D-08  .800000000000D+01
     .482406000000D+06  .400000000000D+01
16 08  9 19 16  0  0.0  .106092076749D-03 -.204636307899D-11  .000000000000D+00
     .130000000000D+02 -.312500000000D-01  .491306179160D-08  .194560865000D+01
     .188127160072D-06  .472996849567D-02  .589899718761D-05  .515366408730D+04
     .489600000000D+06  .122934579849D-06  .203892846345D+01  .633299350739D-07
     .966140093121D+00  .266625000000D+03 -.398510655431D+00 -.817605485122D-08
     .193579491934D-09  .100000000000D+01  .149700000000D+04  .000000000000D+00
     .240000000000D+01  .000000000000D+00 -.977888703346D-08  .130000000000D+02
     .482406000000D+06  .400000000000D+01
